City,State,Zip,Division,TicketOffice,CheckedBaggage,HandleUSMail,Lounge
Colby,WI,54421,Central,N,N,N,N
Aberdeen,MD,21001-3701,Mid-Atlantic,N,N,N,N
Absecon,NJ,08201,Northeast,N,N,N,N
Albuquerque,NM,87102-3405,Southwest,Y,Y,N,N
Antioch,CA,94509-1122,Pacific,N,N,N,N
Atlantic City,NJ,08401-4106,Northeast,N,N,N,N
,,,,,,,
Ardmore,OK,73401-7016,Southwest,N,N,N,N
Augusta,ME,04330,Northeast,N,N,N,N
Ashland,OR,97520,Pacific,N,N,N,N
Ashland,KY,41101,Mid-Atlantic,N,N,N,N
Rensselaer,NY,12144-2310,Northeast,Y,Y,N,N
Alliance,OH,44601,Central,N,N,N,N
Alderson,WV,24910,Mid-Atlantic,N,N,N,N
Albion,MI,49224,Central,N,N,N,N
Alpena,MI,49707,Central,N,N,N,N
Alton,IL,62002-5000,Central,Y,N,N,N
Alpine,TX,79830,Southwest,N,N,N,N
Altoona,PA,16601,Mid-Atlantic,Y,N,N,N
Alexandria,VA,22301-2752,Mid-Atlantic,Y,Y,N,N
Albany,OR,97321-2457,Pacific Northwest,Y,Y,N,N
Amherst,MA,01002-2318,Northeast,N,N,N,N
Amsterdam,NY,12010-1053,Northeast,N,N,N,N
Anaheim,CA,92806,Southwest,Y,Y,N,N
Appleton,WI,54911-5448,Central,N,N,N,N
Ann Arbor,MI,48104,Central,Y,N,N,N
Arcata,CA,95521-6239,Pacific,N,N,N,N
Ardmore,PA,19003,Mid-Atlantic,N,N,N,N
Astoria,OR,97103,Pacific,N,N,N,N
Arkadelphia,AR,71923-6237,Central,N,N,N,N
Auburn,CA,95603,Pacific,N,N,N,N
Astoria,OR,97103,Pacific Northwest,N,N,N,N
Ashland,VA,23005,Mid-Atlantic,N,N,N,N
Aldershot,ON,L7T 4A8,VIA Rail Canada Inc.,Y,N,N,N
Atascadero,CA,93422,Pacific,N,N,N,N
Athol,ID,83801,Pacific Northwest,N,N,N,N
Atlanta,GA,30309,Southern,Y,Y,N,N
Anniston,AL,36201,Southern,N,N,N,N
Atco,NJ,08004,Northeast,N,N,N,N
Austin,TX,78703,Southwest,Y,Y,N,N
,,,,,,,
Baker City,OR,97814,Pacific Northwest,N,N,N,N
Baltimore,MD,21201-5815,Mid-Atlantic,Y,Y,N,N
Bangor,MI,49013-1464,Central,N,N,N,N
Bangor,ME,04401-3011,Northeast,N,N,N,N
Barstow,CA,92311,Southwest,N,N,N,N
Bath,ME,04530-6018,Northeast,N,N,N,N
Barnesville,MD,20841,MARC,,,,
Barstow,CA,92311-3239,Southwest,N,N,N,N
Boston,MA,02116-5162,Northeast,Y,N,N,N
Baltimore,MD,21230,MARC,,,,
Burke,VA,22015,Mid-Atlantic,N,N,N,N
Bay City,MI,48708,Central,N,N,N,N
Bend,OR,97701,Pacific Northwest,N,N,N,N
Bradenton,FL,34205-7803,Southern,N,Y,N,N
Bend,OR,97701,Pacific Northwest,N,N,N,N
Bellingham,WA,98225,Pacific Northwest,Y,Y,N,N
Benson,AZ,85602-6611,Southwest,N,N,N,N
Kensington,CT,06037,Northeast,Y,N,N,N
South Beloit,IL,61080-9723,Central,N,N,N,N
Bakersfield,CA,93301-5319,Pacific,Y,Y,N,N
Belfast,ME,04915,Northeast,N,N,N,N
Buffalo,NY,14203,Northeast,Y,N,N,N
Big Rapids,MI,49307-2373,Central,N,N,N,N
Birmingham,AL,35203-3109,Southern,Y,Y,N,N
Berlin,NH,03570-1900,Northeast,N,N,N,N
Brookings,OR,97415,Pacific,N,N,N,N
Berkeley,CA,94710-1924,Pacific,N,N,N,N
Bellows Falls,VT,05101-1356,Northeast,N,N,N,N
Birmingham,MI,48009,Central,N,N,N,N
Beaumont,TX,77704,Southwest,N,N,N,N
Burlington,NC,27217,Southern,N,N,N,N
Bend,OR,97701,Pacific Northwest,N,N,N,N
Branford,CT,06405,Shore Line East,,,,
Bingen,WA,98605,Pacific Northwest,N,N,N,N
Normal,IL,61761-3015,Central,Y,Y,N,N
Burns,OR,97720,Pacific Northwest,N,N,N,N
Boise,ID,83702-5619,Pacific Northwest,N,N,N,N
Boston,MA,02114,Northeast,Y,N,N,N
Boston,MA,02110,Northeast,Y,Y,N,Y
Brattleboro,VT,05301-3389,Northeast,N,N,N,N
Brookhaven,MS,39601-3839,Southern,N,N,N,N
Brunswick,ME,04011,Northeast,N,N,N,N
Burlington,IA,52601,Central,N,N,N,N
Browning,MT,59417,Pacific Northwest,N,N,N,N
Bridgeport,CT,06604-4315,Northeast,N,N,N,N
Battle Creek,MI,49017-3521,Central,Y,N,N,N
Baton Rouge,LA,70802,Southern,N,N,N,N
Depew,NY,14043,Northeast,Y,Y,N,N
Buellton,CA,93427,Pacific,N,N,N,N
Burbank,CA,91505,Southwest,N,N,N,N
Beaver Dam,WI,53916,Central,N,N,N,N
Brunswick,ME,04011,Northeast,N,N,N,N
Bowie,MD,20715,MARC,,,,
BWI Airport,MD,21240-0642,Mid-Atlantic,Y,N,N,N
Brunswick,MD,21716-1147,MARC,,,,
Brewster,WA,98812,Pacific,N,N,N,N
Boyds,MD,20841,MARC,,,,
Boyne Falls,MI,49713,Central,N,N,N,N
Bryan,OH,43506,Central,N,N,N,N
,,,,,,,
Camden,SC,29020,Southern,N,N,N,N
Conway,NH,03818,Northeast,N,N,N,N
,,,,,,,
Cannon Beach,OR,97110,Pacific Northwest,N,N,N,N
Cleburne,TX,76031-4236,Southwest,N,N,N,N
Columbus,WI,53925,Central,Y,Y,N,N
Coos Bay,OR,97420-2335,Pacific Northwest,N,N,N,N
Cabazon,CA,92230,Southwest,N,N,N,N
Cambridge,MD,21613,Mid-Atlantic,N,N,N,N
Carbondale,IL,62901,Central,Y,Y,N,N
Rockport,ME,04856,Northeast,N,N,N,N
Centralia,IL,62801-3526,Central,N,N,N,N
Coeur d'Alene,ID,83814,Pacific Northwest,N,N,N,N
Colfax,WA,99111,Pacific Northwest,N,N,N,N
,,,,,,,
Chicago,IL,60606-5702,Central,Y,Y,N,Y
Champaign,IL,61820-4046,Central,Y,Y,N,N
Chippewa Falls,WI,54729,Central,N,N,N,N
North Charleston,SC,29405,Southern,Y,Y,N,N
Charleston,WV,25314,Mid-Atlantic,Y,Y,N,N
Chico,CA,95928-4602,Pacific,N,N,N,N
Cincinnati,OH,45203-1130,Central,Y,Y,N,N
Claremont,NH,03743,Northeast,N,N,N,N
Columbia,SC,29201,Southern,Y,Y,Y,N
Cadillac,MI,49601-8624,Central,N,N,N,N
Cleveland,OH,44114,Central,Y,Y,N,N
Clifton Forge,VA,24422,Mid-Atlantic,N,N,N,N
Crater Lake,OR,97604,Pacific Northwest,N,N,N,N
Claremont,CA,91711,Southwest,N,N,N,N
Clinton,CT,06413,Shore Line East,,,,
Culpeper,VA,22701,Mid-Atlantic,N,N,N,N
Charlotte,NC,28206,Southern,Y,Y,N,N
Cloverdale,CA,95425,Pacific,N,N,N,N
Camarillo,CA,93010,Southwest,N,N,N,N
Chemult,OR,97731,Pacific Northwest,N,N,N,N
Concord,NH,03301-5064,Northeast,N,N,N,N
Earlimart,CA,93219,Pacific,N,N,N,N
Castleton,VT,05735-7716,Northeast,N,N,N,N
Corcoran,CA,93212-2445,Pacific,N,N,N,N
Connersville,IN,47331,Central,N,N,N,N
Colorado Springs,CO,80903,Central,N,N,N,N
Coatesville,PA,19320,Mid-Atlantic,N,N,N,N
Connellsville,PA,15425,Mid-Atlantic,N,N,N,N
Colfax,CA,95713,Pacific,N,N,N,N
College Park,MD,20740,MARC,,,,
Carpinteria,CA,93013,Southwest,N,N,N,N
Crescent City,CA,95531,Pacific,N,N,N,N
Crawfordsville,IN,47933,Central,N,N,N,N
Cherry Hill,NJ,08002,Northeast,N,N,N,N
Carmel,CA,93923-8609,Pacific,N,N,N,N
Creston,IA,50891,Central,N,N,N,N
Croton-on-Hudson,NY,10520-3054,Northeast,N,N,N,N
Carlinville,IL,62626-1625,Central,N,N,N,N
,,,,,,,
Clemson,SC,29631,Southern,N,N,N,N
Centralia,WA,98531,Pacific Northwest,Y,Y,N,N
Cumberland,MD,21502,Mid-Atlantic,N,N,N,N
Cumberland,MD,21502,Mid-Atlantic,N,N,N,N
Cut Bank,MT,59427-2934,Pacific Northwest,N,N,N,N
Camp Verde,AZ,86322-5201,Southwest,N,N,N,N
Corvallis,OR,97330,Pacific Northwest,N,N,N,N
Cave Junction,OR,97523,Pacific,N,N,N,N
Colville,WA,99114,Pacific Northwest,N,N,N,N
Charlottesville,VA,22903,Mid-Atlantic,Y,Y,N,N
Cornwells Heights,PA,19020,Northeast,N,N,N,N
Chewelah,WA,99109,Pacific Northwest,N,N,N,N
Chatsworth,CA,91311,Southwest,N,N,N,N
Cary,NC,27513,Southern,Y,Y,N,N
Dallas,TX,75202-4840,Southwest,Y,Y,N,N
Damariscotta,ME,04543-4649,Northeast,N,N,N,N
Danville,VA,24541-1503,Southern,N,N,N,N
Davis,CA,95616-4624,Pacific,Y,Y,N,N
Pleasanton,CA,94588-3900,Pacific,N,N,N,N
Dade City,FL,33525,Southern,N,N,N,N
Dodge City,KS,67801,Southwest,N,N,N,N
Denver,CO,80202,Central,N,N,N,N
Deming,NM,88030,Southwest,N,N,N,N
Denver,CO,80202,Central,Y,Y,N,N
Dearborn,MI,48126,Central,Y,N,N,N
Detroit,MI,48202,Central,Y,N,N,N
Deerfield Beach,FL,33442,Southern,Y,Y,N,N
Durham,NH,03824-1909,Northeast,N,N,N,N
Dillon,SC,29536,Southern,N,N,N,N
Dickerson,MD,20842,MARC,,,,
Delray Beach,FL,33444,Southern,N,N,N,N
Deland,FL,32720-2808,Southern,Y,Y,N,N
Detroit Lakes,MN,56501,Central,N,N,N,N
Durham,NC,27701-2887,Southern,Y,Y,N,N
Denmark,SC,29042,Southern,N,N,N,N
Dowagiac,MI,49047-1448,Central,N,N,N,N
Dover,NH,03820-3327,Northeast,N,N,N,N
Downingtown,PA,19335,Mid-Atlantic,N,N,N,N
Deer Park,WA,99006,Pacific Northwest,N,N,N,N
Du Quoin,IL,62832-1602,Central,N,N,N,N
Durand,MI,48429-1713,Central,N,N,N,N
Elkridge,MD,21075,MARC,,,,
Del Rio,TX,78840,Southwest,N,N,N,N
Duffields,WV,25414,MARC,,,,
Dunkirk,NY,14048,Northeast,N,N,N,N
Duluth,MN,55806,Central,N,N,N,N
Dunsmuir,CA,96025-2024,Pacific,N,N,N,N
Duluth,MN,55812,Central,N,N,N,N
Danville,IL,61834-9378,Central,N,N,N,N
Devils Lake,ND,58301,Central,N,N,N,N
Davenport,IA,52801,Central,N,N,N,N
Dover,DE,19904-4106,Mid-Atlantic,N,N,N,N
Dwight,IL,60420-1321,Central,N,N,N,N
Daytona Beach,FL,32118-4273,Southern,N,N,N,N
Dyer,IN,46311,Central,N,N,N,N
Edgewood,MD,21040,MARC,,,,
Edmonds,WA,98020-4132,Pacific Northwest,Y,Y,N,N
Effingham,IL,62401-3772,Central,N,N,N,N
Egg Harbor City,NJ,08215,Northeast,N,N,N,N
Eureka,CA,95501,Pacific,N,N,N,N
Elk Grove,CA,95758,Pacific,N,N,N,N
Elkhart,IN,46515,Central,N,N,N,N
Elko,NV,89801,Pacific,N,N,N,N
El Paso,TX,79901,Southwest,Y,Y,N,N
Elsie,OR,97138-6162,Pacific Northwest,N,N,N,N
Elizabethtown,PA,17022,Mid-Atlantic,N,N,N,N
Elyria,OH,44035,Central,N,N,N,N
Escanaba,MI,49829,Central,N,N,N,N
Emeryville,CA,94608-2037,Pacific,Y,Y,N,N
Ephrata,WA,98823-2421,Pacific Northwest,N,N,N,N
El Portal,CA,95318-0169,Pacific,N,N,N,N
Ephrata,WA,98823-2151,Pacific Northwest,N,N,N,N
Erie,PA,16501,Northeast,N,N,N,N
El Segundo,CA,90245,Southwest,N,N,N,N
Essex,MT,59916-9710,Pacific Northwest,N,N,N,N
Easton,MD,21601,Mid-Atlantic,N,N,N,N
Essex Junction,VT,05452,Northeast,N,N,N,N
Eau Claire,WI,54701,Central,N,N,N,N
Eugene,OR,97401-2613,Pacific Northwest,Y,Y,N,N
Eugene,OR,97402,Pacific Northwest,N,N,N,N
Everett,WA,98201,Pacific Northwest,Y,Y,N,N
Newark,NJ,07114-3401,Northeast,Y,N,N,N
,,,,,,,
,,,,,,,
Exeter,NH,03833,Northeast,N,N,N,N
Exton,PA,19341,Mid-Atlantic,N,N,N,N
Fargo,ND,58102,Central,Y,Y,N,N
Fayetteville,NC,28301-5563,Southern,Y,Y,N,N
Fredericksburg,VA,22401-6067,Mid-Atlantic,N,N,N,N
Fond du Lac,WI,54935-4705,Central,N,N,N,N
Fredonia,NY,14063,Northeast,N,N,N,N
Fort Edward,NY,12828,Northeast,N,N,N,N
Flagstaff,AZ,86001-5843,Southwest,N,N,N,N
Fort Hood,TX,76544,Southwest,N,N,N,N
Fillmore,CA,93015-1835,Southwest,N,N,N,N
,,,,,,,
Flagstaff,AZ,86001-5530,Southwest,Y,Y,N,N
Flint,MI,48503-2878,Central,Y,N,N,N
Florence,SC,29506,Southern,Y,Y,N,N
Fort Madison,IA,52627,Central,Y,N,N,N
Fort Morgan,CO,80701,Central,N,N,N,N
Fremont,CA,94536,Pacific,N,N,N,N
Fresno,CA,93721-1325,Pacific,Y,Y,N,N
Ledyard,CT,06339-1128,Northeast,N,N,N,N
Framingham,MA,01702-6948,Northeast,N,N,N,N
Frederick,MD,21704,Mid-Atlantic,N,N,N,N
Florence,OR,97439,Pacific Northwest,N,N,N,N
Frederick,MD,21705,Mid-Atlantic,N,N,N,N
Fremont,CA,94538,Pacific,N,N,N,N
Frostburg,MD,21532,Mid-Atlantic,N,N,N,N
Frisco,CO,80443,Central,N,N,N,N
Fortuna,CA,95540,Pacific,N,N,N,N
Ticonderoga,NY,12883,Northeast,N,N,N,N
Fort Lauderdale,FL,33312,Southern,Y,Y,N,N
Fort Myers,FL,33906-4419,Southern,N,Y,N,N
Fulton,KY,42041,Central,N,N,N,N
Fort Worth,TX,76102,Southwest,Y,Y,N,N
Fullerton,CA,92832,Southwest,Y,Y,N,N
Santa Clara,CA,95054,Pacific,N,N,N,N
Gaithersburg,MD,20877,MARC,,,,
Gastonia,NC,28054,Southern,N,N,N,N
Galesburg,IL,61401,Central,Y,N,N,N
Garibaldi Highlands,BC,V0N 1T0,Pacific,N,N,N,N
Greenbelt,MD,20770,MARC,,,,
Garberville,CA,95542,Pacific,N,N,N,N
Green Bay,WI,54301,Central,N,N,N,N
,,,,,,,
Grand Canyon National Park,AZ,86023,Southwest,N,N,N,N
Garden City,KS,67846,Southwest,Y,N,N,N
Grand Canyon National Park,AZ,86023,Southwest,N,N,N,N
Glendale,CA,91204,Southwest,N,N,N,N
Germantown,MD,20875,MARC,,,,
Grand Forks,ND,58201,Central,Y,Y,N,N
Dearborn,MI,48216,Central,N,N,N,N
Glasgow,MT,59230-2396,Pacific Northwest,N,N,N,N
Gold Hill,OR,97525,Pacific,N,N,N,N
Gearhart,OR,97301,Pacific Northwest,N,N,N,N
,,,,,,,
Grand Junction,CO,81501-2207,Pacific,Y,Y,N,N
Gainesville,TX,76240,Southwest,N,N,N,N
,,,,,,,
Gilman,IL,60983,Central,N,N,N,N
Glenview,IL,60025,Central,Y,N,N,N
Gallup,NM,87301,Southwest,N,N,N,N
Galveston,TX,77550,Southwest,N,N,N,N
Galveston,TX,77550-3819,Southwest,N,N,N,N
Gilroy,CA,95020,Pacific,N,N,N,N
Grimsby,ON,L3M 3H6,VIA Rail Canada Inc.,N,N,N,N
Greensburg,PA,15601,Mid-Atlantic,N,N,N,N
Gainesville,FL,32601,Southern,N,N,N,N
Gainesville,GA,30501,Southern,N,N,N,N
,,,,,,,
,,,,,,,
,,,,,,,
,,,,,,,
East Glacier Park,MT,59434,Pacific Northwest,Y,Y,N,N
,,,,,,,
Garrett Park,MD,20852,MARC,,,,
,,,,,,,
Granby,CO,80446,Central,N,N,N,N
Green River,UT,84525,Pacific,N,N,N,N
Greensboro,NC,27401-2704,Southern,Y,Y,N,N
Grand Rapids,MI,49503-4061,Central,N,N,N,N
,,,,,,,
Greenville,SC,29601,Southern,Y,Y,N,N
Glenwood Springs,CO,81601,Central,Y,Y,N,N
Goshen,CA,93227,Pacific,N,N,N,N
Goleta,CA,93117,Southwest,N,N,N,N
Grants Pass,OR,97526,Pacific,N,N,N,N
Grantsville,MD,21536,Mid-Atlantic,N,N,N,N
Guadalupe,CA,93434,Southwest,N,N,N,N
Guilford,CT,06437,Shore Line East,,,,
Guthrie,OK,73044-3150,Central,N,N,N,N
Grover Beach,CA,93433-1968,Southwest,N,N,N,N
Grangeville,ID,83530,Pacific Northwest,N,N,N,N
Greenwood,MS,38930,Central,N,N,N,N
Baltimore,MD,21227,MARC,,,,
Hagerstown,MD,21740-1414,Mid-Atlantic,N,N,N,N
Hamlet,NC,28345,Southern,N,N,N,N
Harrisburg,PA,17101,Mid-Atlantic,Y,N,N,N
Hastings,NE,68901,Central,Y,Y,N,N
Havre,MT,59501-3599,Pacific Northwest,Y,Y,N,N
Hayward,CA,94541,Pacific,N,N,N,N
Hazlehurst,MS,39083,Southern,N,N,N,N
Hattiesburg,MS,39401,Southern,N,N,N,N
Hudson,WI,54016,Central,N,N,N,N
Healdsburg,CA,95448-4000,Pacific,N,N,N,N
Hermann,MO,65041,Central,N,N,N,N
Helper,UT,84526,Pacific,N,N,N,N
Hemet,CA,92545-3622,Southwest,N,N,N,N
Hartford,CT,06103,Northeast,Y,N,N,N
Harpers Ferry,WV,25425,Mid-Atlantic,N,N,N,N
Huntingdon,PA,16652,Mid-Atlantic,N,N,N,N
Houghton,MI,49931,Central,N,N,N,N
Haverhill,MA,01832-5418,Northeast,N,N,N,N
Hinton,WV,25951,Mid-Atlantic,N,N,N,N
Hinckley,MN,55037,Central,N,N,N,Y
Hancock,MI,49930,Central,N,N,N,N
Holdrege,NE,68949,Central,N,N,N,N
Hammond,LA,70401,Southern,Y,Y,N,N
Hammond,IN,46320-1044,Central,N,N,N,N
Hemet,CA,92543-2905,Southwest,N,N,N,N
Homewood,IL,60430,Central,Y,N,N,N
Hanford,CA,93230-4554,Pacific,Y,Y,N,N
Hancock,MD,21750,Mid-Atlantic,N,N,N,N
Hollywood,FL,33021,Southern,Y,Y,N,N
Holland,MI,49423,Central,N,N,N,N
Hood River,OR,97031,Pacific Northwest,N,N,N,N
Houston,TX,77002,Southwest,Y,Y,N,N
High Point,NC,27260,Southern,N,N,N,N
Hammonton,NJ,08037,Northeast,N,N,N,N
Hudson,NY,12534,Northeast,Y,N,N,N
Huntington,WV,25701,Mid-Atlantic,Y,Y,N,N
Hutchinson,KS,67501,Central,N,N,N,N
Howard City,MI,49329,Central,N,N,N,N
Indio,CA,92201-3917,Southwest,N,N,N,N
Independence,MO,64050-3564,Central,N,N,N,N
Indianapolis,IN,46225-1198,Central,Y,Y,N,N
Irvine,CA,92618,Southwest,Y,N,N,Y
Isleton,CA,95641,Pacific,N,N,N,N
Jackson,MS,39201,Southern,Y,Y,N,N
Jacksonville,FL,32209-2123,Southern,Y,Y,N,N
Jefferson City,MO,65101,Central,N,N,N,N
Jessup,MD,20794,MARC,,,,
Jamestown,NY,14701,Northeast,N,N,N,N
June Lake,CA,95529,Pacific,N,N,N,N
Joliet,IL,60431,Central,Y,N,N,N
Jesup,GA,31545-1300,Southern,N,N,N,N
Johnstown,PA,15901,Mid-Atlantic,Y,N,N,N
Janesville,WI,53545-0373,Central,N,N,N,N
Jackson,MI,49201,Central,Y,N,N,N
Kalamazoo,MI,49007-3669,Central,Y,N,N,N
Kannapolis,NC,28081,Southern,N,N,N,N
Kansas City,MO,64108-2410,Central,Y,Y,N,N
Kewanee,IL,61443,Central,N,N,N,N
Kelso,WA,98626,Pacific Northwest,N,N,N,N
Klamath Falls,OR,97601-3286,Pacific Northwest,Y,Y,N,N
King City,CA,93930-3446,Pacific,N,N,N,N
Kingsley,MI,49649,Central,N,N,N,N
Killeen,TX,76541-5231,Southwest,N,N,N,N
West Kingston,RI,02892-1508,Northeast,Y,N,N,N
Kissimmee,FL,34741-5723,Southern,Y,Y,N,N
Kankakee,IL,60901-3834,Central,N,N,N,N
Kalkaska,MI,49646-8473,Central,N,N,N,N
Kingman,AZ,86401,Southwest,N,N,N,N
Grasonville,MD,21638-1030,Mid-Atlantic,N,N,N,N
Kensington,MD,20895,MARC,,,,
Kettleman City,CA,93239,Pacific,N,N,N,N
Kettle Falls,WA,99141,Pacific Northwest,N,N,N,N
Kingstree,SC,29556-3425,Southern,N,N,N,N
Kirkwood,MO,63122-4202,Central,N,N,N,N
Latrobe,PA,15650,Mid-Atlantic,N,N,N,N
La Grande,OR,97850,Pacific Northwest,N,N,N,N
Lafayette,IN,47901-1238,Central,N,N,N,N
La Grange,IL,60525,Central,N,N,N,N
La Junta,CO,81050,Southwest,Y,Y,N,N
Lakeland,FL,33801-5036,Southern,Y,Y,N,N
L'Anse,MI,49946,Central,N,N,N,N
La Plata,MO,63549,Central,N,N,N,N
Las Vegas,NV,89111-5000,Southwest,N,N,N,N
Laurel,MS,39440,Southern,N,N,N,N
Los Angeles,CA,90012-2902,Southwest,Y,Y,N,N
Long Beach,CA,90802-1323,Southwest,N,N,N,N
Long Beach,CA,90802-6331,Southwest,N,N,N,N
La Crescenta,CA,91214,Southwest,N,N,N,N
Lake Charles,LA,70601-2152,Southern,N,N,N,N
Lincoln,IL,62656,Central,N,N,N,N
Lancaster,CA,93534-3218,Southwest,N,N,N,N
Lincolnville,ME,04849,Northeast,N,N,N,N
Lordsburg,NM,88045,Southwest,N,N,N,N
Somerdale,NJ,08083,Northeast,N,N,N,N
Lee's Summit,MO,64063-2332,Central,N,N,N,N
Leggett,CA,95585-8911,Pacific,N,N,N,N
Leavenworth,WA,98826,Pacific Northwest,N,N,N,N
Lewistown,PA,17044,Mid-Atlantic,N,N,N,N
Lexington,NC,27292,Southern,N,N,N,N
Lafayette,LA,70501-8032,Southern,N,N,N,N
Carlsbad,CA,92008-4610,Pacific,N,N,N,N
Carlsbad,CA,92008,,,,,
Libby,MT,59923-1933,Pacific Northwest,N,N,N,N
Livermore,CA,94550-3011,Pacific,N,N,N,N
Lakeland,FL,33801-5036,Southern,Y,N,N,N
Loon Lake,WA,99148,Pacific Northwest,N,N,N,N
Lemoore,CA,93245-3663,Pacific,N,N,N,N
Lemoore,CA,93245,Pacific,N,N,N,N
La Marque,TX,77568,Southwest,N,N,N,N
Lamar,CO,81052,Southwest,N,N,N,N
Lamy,NM,87540,Southwest,Y,Y,N,N
Lancaster,PA,17602,Mid-Atlantic,Y,N,N,N
Lincoln,NE,68508,Central,Y,Y,N,N
Laguna Niguel,CA,92677,Southwest,N,N,N,N
Lincoln,NH,03251,Northeast,N,N,N,N
East Lansing,MI,48823-5223,Central,Y,N,N,N
Laughlin,NV,89029-1519,Southwest,N,N,N,N
Lodi,CA,95240,Pacific,N,N,N,N
Lompoc,CA,93436,Southwest,N,N,N,N
Lorton,VA,22079,Southern,Y,N,N,N
Lake Placid,NY,12946,Northeast,N,N,N,N
Lapeer,MI,48446-2515,Central,N,N,N,N
La Pine,OR,97739,Pacific Northwest,N,N,N,N
Surf,CA,93437,Southwest,N,N,N,N
La Quinta,CA,92253,Southwest,N,N,N,N
Lawrence,KS,66044,Central,N,N,N,N
Little Rock,AR,72201,Central,Y,Y,N,N
Laurel,MD,20707,MARC,,,,
Laurel,MD,20725,MARC,,,,
La Crosse,WI,54601,Central,Y,Y,N,N
Las Vegas,NM,87701,Southwest,N,N,N,N
Littleton,NH,03561-4118,Northeast,N,N,N,N
Manteca,CA,95330,Pacific,N,N,N,N
Littlerock,CA,93543-3034,Southwest,N,N,N,N
Laytonville,CA,95454,Pacific,N,N,N,N
Louisville,KY,40203-1917,Central,N,N,N,N
Lee Vining,CA,95541,Pacific,N,N,N,N
Las Vegas,NV,89101-6357,Southwest,N,N,N,N
Longview,TX,75602,Southwest,Y,Y,N,N
Leavenworth,WA,98826,Pacific Northwest,N,N,N,N
Lewiston,ID,83501-1617,Pacific Northwest,N,N,N,N
Lynchburg,VA,24501-1303,Southern,Y,Y,N,N
Macomb,IL,61455-7321,Central,N,N,N,N
Mackinaw City,MI,49701,Central,N,N,N,N
Malta,MT,59538-1732,Pacific Northwest,N,N,N,N
Marceline,MO,64658,Central,N,N,N,N
Mattoon,IL,61938-3920,Central,N,N,N,N
Maysville,KY,41056,Central,N,N,N,N
McCall,ID,83638-4408,Pacific Northwest,N,N,N,N
McComb,MS,39648,Southern,N,N,N,N
Merced,CA,95340,Pacific,Y,Y,N,N
McGregor,TX,76657,Southwest,N,N,N,N
Michigan City,IN,46360-3246,Central,N,N,N,N
McCook,NE,69001-3779,Central,N,N,N,N
Frederick,MD,21704,MARC,,,,
Meriden,CT,06450,Northeast,Y,N,N,N
Midpines,CA,95345,Pacific,N,N,N,N
Madera,CA,93638,Pacific,N,N,N,N
Madison,CT,06443,Shore Line East,,,,
Mendota,IL,61342,Central,N,N,N,N
Monroe,WA,98272,Pacific Northwest,N,N,N,N
Meridian,MS,39301,Southern,Y,Y,N,N
Memphis,TN,38103,Central,Y,Y,N,N
Iselin,NJ,08830-2707,Northeast,Y,N,N,N
Monroe,WA,98272,Pacific Northwest,N,N,N,N
Medford,OR,97501,Pacific,N,N,N,N
West Palm Beach,FL,33407,Southern,N,N,N,N
Morgan Hill,CA,95037-3617,Pacific,N,N,N,N
Marshall,TX,75670-5330,Southwest,Y,N,N,N
Manchester,NH,03101-2333,Northeast,N,N,N,N
Miami,FL,33147,Southern,Y,Y,N,Y
Middletown,PA,17057,Mid-Atlantic,N,N,N,N
Mineola,TX,75773-2453,Southwest,N,N,N,N
Mount Joy,PA,17552,Mid-Atlantic,N,N,N,N
Milwaukee,WI,53221,Central,N,N,N,N
Milwaukee,WI,53203,Central,Y,Y,N,N
McKinleyville,CA,95519-9358,Pacific,N,N,N,N
Moline,IL,61265-1302,Central,N,N,N,N
Moses Lake,WA,98837,Pacific Northwest,N,N,N,N
Mancelona,MI,49659-7804,Central,N,N,N,N
Mammoth Lakes,CA,93546,Pacific,N,N,N,N
Montgomery,WV,25136,Mid-Atlantic,N,N,N,N
Manning,OR,97106,Pacific Northwest,N,N,N,N
Menomonie,WI,54751,Central,N,N,N,N
Moscow,ID,83843-2318,Pacific Northwest,N,N,N,N
Modesto,CA,95355-8301,Pacific,Y,Y,N,N
Mojave,CA,93501-1516,Pacific,N,N,N,N
Minot,ND,58701,Central,Y,N,N,N
Riverside,CA,92508-2306,Southwest,N,N,N,N
Moorpark,CA,93021,Southwest,N,N,N,N
Montpelier,VT,05602,Northeast,N,N,N,N
Marquette,MI,49855,Central,N,N,N,N
Martinsburg,WV,25401,Mid-Atlantic,N,N,N,N
Maricopa,AZ,85139,Southwest,Y,Y,N,N
Mariposa,CA,95338,Pacific,N,N,N,N
Mariposa,CA,95338,Pacific,N,N,N,N
Marysville,CA,95901-5211,Pacific,N,N,N,N
Monterey,CA,93940,Pacific,N,N,N,N
Middle River,MD,21220,MARC,,,,
,,,,,,,
Deforest,WI,53532,Central,N,N,N,N
Mosinee,WI,54455,Central,N,N,N,N
Madison,WI,53706-1419,Central,N,N,N,N
St. Paul,MN,55114-1498,Central,Y,Y,N,Y
Manassas,VA,20110,Mid-Atlantic,N,N,N,N
Manitowoc,WI,54220,Central,N,N,N,N
Gaithersburg,MD,20878,MARC,,,,
Manton,MI,49663,Central,N,N,N,N
Mt. Pleasant,IA,52641,Central,Y,N,N,N
Montreal,QC,H3B 4G1,VIA Rail Canada Inc.,Y,N,N,Y
Martinez,CA,94553-1132,Pacific,Y,Y,N,N
Beltsville,MD,20705,MARC,,,,
Malvern,AR,72104-3922,Central,N,N,N,N
Mount Vernon,WA,98273-4327,Pacific Northwest,N,N,N,N
Marinette,WI,54143,Central,N,N,N,N
Monterey,CA,93940,Pacific,N,N,N,N
Monterey,CA,93940,Pacific,N,N,N,N
Monterey,CA,93940,Pacific,N,N,N,N
Mystic,CT,06355,Northeast,N,N,N,N
Monterey,CA,93940,Pacific,N,N,N,N
Nampa,ID,83651,Pacific Northwest,N,N,N,N
Napa,CA,94559-2528,Pacific,N,N,N,N
New Brunswick,NJ,08901,Northeast,Y,N,N,N
Newbern,TN,38059,Central,N,N,N,N
Newburyport,MA,01950-3580,Northeast,N,N,N,N
New Buffalo,MI,49117-1161,Central,N,N,N,N
Nacogdoches,TX,75965-0818,Southwest,N,N,N,N
Necanicum Junction,OR,97301,Pacific Northwest,N,N,N,N
New Carrollton,MD,20784,Mid-Atlantic,Y,N,N,N
Needles,CA,92363,Southwest,N,N,N,N
Newton,KS,67114,Central,Y,N,N,N
Norfolk,VA,23510,Mid-Atlantic,N,N,N,N
Niagara Falls,NY,14305,Northeast,Y,N,N,N
Niagara Falls,ON,L2E 2R6,VIA Rail Canada Inc.,Y,N,N,N
Santa Clarita,CA,91321-0000,Southwest,N,N,N,N
New Hampton,NH,03256-4219,Northeast,N,N,N,N
New Haven,CT,06519-1754,Northeast,Y,Y,N,N
New Iberia,LA,70560,Southern,N,N,N,N
New London,CT,06320,Northeast,Y,N,N,N
Niles,MI,49120-1745,Central,Y,N,N,N
Nanaimo,BC,V9R 5R4,Pacific,N,N,N,N
New Orleans,LA,70113,Southern,Y,Y,N,Y
Norman,OK,73069-6023,Central,N,N,N,N
Newport News,VA,23601-4535,Mid-Atlantic,Y,N,N,N
Newport,OR,97365,Pacific Northwest,N,N,N,N
Naperville,IL,60540,Central,Y,N,N,N
Napa,CA,94559-1925,Pacific,N,N,N,N
Newark,DE,19711-5105,Mid-Atlantic,N,N,N,N
New Rochelle,NY,10801-6353,Northeast,N,N,N,N
North Carolina State Fair,NC,27607-3902,Southern,N,N,N,N
Nashua,NH,03064,Northeast ,N,N,N,N
Newark,NJ,07102-5405,Northeast,Y,Y,N,N
Syracuse,NY,13209-1551,Northeast,N,N,N,N
New York,NY,10001,Northeast,Y,Y,N,Y
Oakland,CA,94621-3316,Pacific,N,N,N,N
Ocala,FL,34470-6647,Southern,N,N,N,N
Ocean City,MD,21842,Mid-Atlantic,N,N,N,N
Oconto,WI,54153,Central,N,N,N,N
Berlin,MD,21811-4010,Mid-Atlantic,N,N,N,N
Ogden,UT,84401,Pacific,N,N,N,N
Orange,CA,92866,Southwest,N,N,N,N
Okanogan,WA,98840,Pacific,N,N,N,N
Oklahoma City,OK,73102,Southwest,N,N,N,N
Okeechobee,FL,34972-2130,Southern,N,N,N,N
Oakland,CA,94607,Pacific,Y,Y,N,N
Oakville,ON,L6J 2W6,VIA Rail Canada Inc.,Y,N,N,N
San Diego,CA,92110,Southwest,N,N,N,N
Lacey,WA,98513-6481,Pacific Northwest,N,N,N,N
Omaha,NE,68108,Central,Y,Y,N,N
Omak,WA,98841-9580,Pacific,N,N,N,N
Ontario,CA,91764,Southwest,N,N,N,N
Ontario,OR,97914-2830,Pacific Northwest,N,N,N,N
Old Orchard Beach,ME,04064,Northeast,N,N,N,N
Oregon City,OR,97045,Pacific Northwest,N,N,N,N
Orlando,FL,32806-3905,Southern,Y,Y,N,N
Orono,ME,04473,Northeast,N,N,N,N
Oroville,CA,95965,Pacific,N,N,N,N
Old Saybrook,CT,06475-1516,Northeast,Y,N,N,N
Osceola,IA,50213,Central,N,N,N,N
Oceanside,CA,92054,Southwest,Y,Y,N,N
Oshkosh,WI,54902-6871,Central,N,N,N,N
Oshkosh,WI,54901,Central,N,N,N,N
Ottumwa,IA,52501,Central,Y,N,N,N
Odenton,MD,21113,MARC,,,,
Owosso,MI,48867,Central,N,N,N,N
Oxnard,CA,93030,Southwest,Y,Y,N,N
Palatka,FL,32177-3615,Southern,N,N,N,N
Paoli,PA,19301,Mid-Atlantic,Y,N,N,N
Parkesburg,PA,19365,Mid-Atlantic,N,N,N,N
Pasadena,CA,91101-2441,Southwest,N,N,N,N
Poplar Bluff,MO,63901-5855,Central,N,N,N,N
Pemberton,BC,V0N 2L0,Pacific,N,N,N,N
Port Charlotte,FL,33980-4248,Southern,N,Y,N,N
Princeton,IL,61356,Central,N,N,N,N
Placerville,CA,95667,Pacific,N,N,N,N
Palm Desert,CA,92260,Southwest,N,N,N,N
Portland,OR,97209,Pacific,N,N,N,N
Prunedale,CA,93907,Pacific,N,N,N,N
Portland,OR,97209-3789,Pacific Northwest,Y,Y,N,Y
Pendleton,OR,97801,Pacific Northwest,N,N,N,N
Post Falls,ID,88354,Pacific Northwest,N,N,N,N
Pittsburgh,PA,15222,Mid-Atlantic,Y,Y,N,N
Phoenix,AZ,85034,Southwest,N,N,N,N
Phoenix,AZ,85034,Southwest,N,N,N,N
Philadelphia,PA,19104-2898,Mid-Atlantic,Y,Y,N,Y
Philadelphia,PA,19132-2400,Mid-Atlantic,N,N,N,N
Peoria,IL,61602-1538,Central,N,N,N,N
Picayune,MS,39466,Southern,N,N,N,N
Pittsfield,MA,01201-5314,Northeast,N,N,N,N
Princeton Junction,NJ,08550-1008,Northeast,Y,N,N,N
Plattsburgh,NY,12901,Northeast,N,N,N,N
Plano,IL,60545,Central,N,N,N,N
Pleasanton,CA,94566,Pacific,N,N,N,N
Plummer,ID,83851-9553,Pacific Northwest,N,N,N,N
Palmdale,CA,93550-4513,Southwest,N,N,N,N
Primm,NV,89019-7002,Southwest,N,N,N,N
Plymouth,NH,03264-1548,Northeast,N,N,N,N
Pontiac,MI,48342-2276,Central,N,N,N,N
Portage,WI,53901,Central,N,N,N,N
Port Henry,NY,12974-1324,Northeast,N,N,N,N
Pontiac,IL,61764,Central,N,N,N,N
Portland,ME,04102-2630,Northeast,Y,N,N,N
Pomona,CA,91768,Southwest,N,N,N,N
Poughkeepsie,NY,12601-2909,Northeast,N,N,N,N
Paso Robles,CA,93446-2856,Southwest,N,N,N,N
Prince,WV,25907,Mid-Atlantic,Y,Y,N,N
Perris,CA,92571-4702,Southwest,N,N,N,N
Port Kent,NY,12975,Northeast,N,N,N,N
Point of Rocks,MD,21777,MARC,,,,
Provo,UT,84601-4542,Pacific,N,N,N,N
Perryville,MD,21903,MARC,,,,
Pasco,WA,99301-5378,Pacific Northwest,Y,Y,N,N
Petosky,MI,49770-2327,Central,N,N,N,N
Palm Springs,CA,92262,Southwest,N,N,N,N
Palm Springs,CA,92262,Southwest,N,N,N,N
Palm Springs,CA,92262-6414,Southwest,N,N,N,N
Pellston,MI,49769,Central,N,N,N,N
Petersburg,VA,23803-1642,Southern,Y,Y,N,N
Petaluma,CA,94952,Pacific,N,N,N,N
Pateros,WA,98846,Pacific,N,N,N,N
Port Huron,MI,48060,Central,Y,N,N,N
Potlatch,ID,83855,Pacific Northwest,N,N,N,N
Portsmouth,NH,03801-7126,Northeast,N,N,N,N
Pueblo,CO,81003,Central,N,N,N,N
Pullman,WA,99163-3429,Pacific Northwest,N,N,N,N
Purcell,OK,73080,Central,N,N,N,N
Providence,RI,02903,Northeast,Y,Y,N,N
Pauls Valley,OK,73075,Southwest,N,N,N,N
Phoenix,AZ,85023,Southwest,N,N,N,N
Quantico,VA,22134-3444,Mid-Atlantic,N,N,N,N
Quincy,IL,62301,Central,N,N,N,N
Quincy,WA,98848-1497,Pacific Northwest,N,N,N,N
Raton,NM,87740-3903,Southwest,Y,N,N,N
Richmond,BC,V6X 2M9,Pacific,N,N,N,N
Red Bluff,CA,96080-3802,Pacific,N,N,N,N
Rockford,IL,61108-4606,Central,N,N,N,N
Redding,CA,96001-1712,Pacific,N,N,N,N
Redmond,OR,97756,Pacific Northwest,N,N,N,N
Redding,CA,96001-1008,Pacific,N,N,N,N
Scotia,CA,95565,Pacific,N,N,N,N
Red Wing,MN,55066,Central,N,N,N,N
Reed City,MI,49677-1119,Central,N,N,N,N
,,,,,,,
Rensselaer,IN,47978,Central,N,N,N,N
Raleigh,NC,27601,Southern,Y,Y,N,Y
Rhinecliff,NY,12574,Northeast,Y,N,N,N
Richmond,CA,94802,Pacific,N,N,N,N
Riverside,CA,92507-4223,Southwest,N,N,N,N
Rockford,MI,49341,Central,N,N,N,N
Rock Island,IL,61201,Central,N,N,N,N
Rockville,MD,20850,Mid-Atlantic,N,N,N,N
Rocklin,CA,95677,Pacific,N,N,N,N
,,,,,,,
Rocky Mount,NC,27804-5820,Southern,Y,Y,N,N
Reno,NV,89501-1425,Pacific,Y,Y,N,N
Klamath Falls,OR,97601,Pacific Northwest,N,N,N,N
Rochester,NY,14605,Northeast,Y,Y,N,N
Rockland,ME,04841-3366,Northeast,N,N,N,N
Rome,NY,13440,Northeast,N,N,N,N
Royal Oak,MI,48069,Central,N,N,N,N
,,,,,,,
Rohnert Park,CA,94928,Pacific,N,N,N,N
Randolph,VT,05060,Northeast,N,N,N,N
Reedsport,OR,97467-1605,Pacific Northwest,N,N,N,N
Rouses Point,NY,12979,Northeast,N,N,N,N
Roseville,CA,95678-2242,Pacific,N,N,N,N
Westwood,MA,02090-2307,Northeast,Y,N,N,N
Rantoul,IL,61866,Central,N,N,N,N
Ritzville,WA,99169,Pacific Northwest,N,N,N,N
Rutland,VT,05701,Northeast,N,N,N,N
Rugby,ND,58368,Central,Y,N,N,N
Riverdale,MD,20737,MARC,,,,
Richmond,VA,23219,Mid-Atlantic,N,N,N,N
Richmond,VA,23228,Mid-Atlantic,Y,Y,N,N
Rio Vista,CA,94571-1837,Pacific,N,N,N,N
St Albans,VT,05478,Northeast,N,N,N,N
Sacramento,CA,95814-2308,Pacific,Y,Y,N,N
Santa Fe,NM,87501,Southwest,N,N,N,N
Salisbury,NC,28144,Southern,N,N,N,N
San Diego,CA,92101-3339,Southwest,Y,Y,N,N
Saco,ME,04072-3502,Northeast,N,N,N,N
Santa Paula,CA,93060-3376,Southwest,N,N,N,N
Saratoga Springs,NY,12866,Northeast,Y,N,N,N
San Antonio,TX,78205,Southwest,Y,Y,N,N
Santa Maria,CA,93455,Southwest,N,N,N,N
Savannah,GA,31401-1634,Southern,Y,Y,N,N
Santa Barbara,CA,93101-3833,Southwest,Y,Y,N,N
Sebring,FL,33870-3513,Southern,Y,Y,N,N
Shelby,MT,59474-2050,Pacific Northwest,Y,Y,N,N
St. Catharines,ON,L2S 2K3,VIA Rail Canada Inc.,Y,N,N,N
Santa Clara,CA,95050-4319,Pacific,N,N,N,N
St. Cloud,MN,56304-0751,Central,N,N,N,N
Schriever,LA,70395,Central,N,N,N,N
Sacramento,CA,95814-4905,Pacific,N,N,N,N
Santa Cruz,CA,95060,Pacific,N,N,N,N
Sedona,AZ,86336-4223,Southwest,N,N,N,N
Slidell,LA,70458,Southern,N,N,N,N
Schenectady,NY,12305-1817,Northeast,Y,Y,N,N
Seattle,WA,98104-2868,Pacific Northwest,Y,Y,N,N
Lanham,MD,20706,MARC,,,,
Sedalia,MO,65301,Central,N,N,N,N
Seaside,CA,93955,Pacific,N,N,N,N
Sanford,FL,32771-2385,Southern,Y,N,N,N
San Francisco,CA,94133,,,,,
San Francisco,CA,94105-1216,Pacific,Y,Y,N,N
San Francisco,CA,94111-4800,Pacific,N,N,N,N
San Francisco,CA,94111,Pacific,N,N,N,N
San Francisco,CA,94103-3118,Pacific,N,N,N,N
San Francisco,CA,94107-1617,Pacific,N,N,N,N
San Francisco,CA,94103-1901,Pacific,N,N,N,N
San Francisco,CA,94102,Pacific,N,N,N,N
San Francisco,CA,94133,Pacific,N,N,N,N
Sagle,ID,83860,Pacific Northwest,N,N,N,N
Saginaw,MI,48607,Central,N,N,N,N
Sheboygan,WI,53081,Central,N,N,N,N
Shreveport,LA,71109-7764,Southwest,N,N,N,N
Shawano,WI,54166-6160,Central,N,N,N,N
Sandpoint,ID,83864,Pacific Northwest,N,N,N,N
Simi Valley,CA,93063,Southwest,N,N,N,N
San Jose,CA,95110,Pacific,Y,Y,N,N
St. Joseph,MI,49085,Central,N,N,N,N
Skykomish,WA,98288,Pacific Northwest,N,N,N,N
Stockton,CA,95203,Pacific,Y,Y,N,N
Stockton,CA,95202,Pacific,N,N,N,N
Skykomish,WA,98288,Pacific Northwest,N,N,N,N
Sandusky,OH,44870-3165,Central,N,N,N,N
Salt Lake City,UT,84101,Pacific,N,N,N,N
Salt Lake City,UT,84101,Pacific,Y,Y,N,N
Salem,OR,97301-3725,Pacific Northwest,N,N,N,N
Stateline,CA,96150,Pacific,N,N,N,N
Salem,OR,97301,Pacific Northwest,Y,Y,N,N
Stateline,NV,89449,Pacific,N,N,N,N
San Luis Obispo,CA,93401-4449,Southwest,Y,Y,N,N
San Luis Obispo,CA,93401,Southwest,N,N,N,N
St-Lambert,QC,J4P 2G5,VIA Rail Canada Inc.,Y,N,N,N
Salisbury,MD,21801,Mid-Atlantic,N,N,N,N
South Lake Tahoe,CA,96151,Pacific,N,N,N,N
Solvang,CA,93463,Southwest,N,N,N,N
Salisbury,MD,21801-4126,Mid-Atlantic,N,N,N,N
San Marcos,TX,78666-6310,Southwest,N,N,N,N
Madison,WI,53716,Central,N,N,N,N
Sault Sainte Marie,MI,49783-3619,Central,N,N,N,N
Smith River,CA,95567,Pacific,N,N,N,N
Summit,IL,60501,Central,N,N,N,N
Santa Ana,CA,92701,Southwest,Y,Y,N,N
San Bernardino,CA,92410-1715,Southwest,N,N,N,N
San Juan Capistrano,CA,92675,Southwest,Y,N,N,N
Sanderson,TX,79848,Southwest,N,N,N,N
San Clemente,CA,92672-5301,Southwest,N,N,N,N
Salinas,CA,93901-1432,Pacific,Y,Y,N,N
Stanley,WI,54768,Central,N,N,N,N
South Bend,IN,46628,Central,Y,Y,N,N
Solana Beach,CA,92075,Southwest,Y,N,N,N
Southern Pines,NC,28387,Southern,N,N,N,N
Spartanburg,SC,29303,Southern,N,N,N,N
San Pedro,CA,90731,Southwest,N,N,N,N
Springfield,MA,01103,Northeast,Y,Y,N,N
Springfield,IL,62701-1106,Central,Y,Y,N,N
Spokane,WA,99201-3704,Pacific Northwest,Y,Y,N,N
Staples,MN,56479,Central,N,N,N,N
South Shore,KY,41174,Central,N,N,N,N
San Pedro,CA,90731,Southwest,N,N,N,N
Sandpoint,ID,83864,Pacific Northwest,N,N,N,N
Sparks,NV,89431,Pacific,N,N,N,N
Squamish,BC,V0N 3G0,Pacific,N,N,N,N
Sarasota,FL,34231-5914,Southern,N,Y,N,N
Santa Rosa,CA,95401,Pacific,N,N,N,N
Saratoga Springs,NY,12866,Northeast,N,N,N,N
Searsport,ME,04974-3322,Northeast,N,N,N,N
Seaside,OR,97301,Pacific Northwest,N,N,N,N
Selma,NC,27576,Southern,N,N,N,N
Silver Spring,MD,20910,MARC,,,,
Stevens Pass,WA,98826,Pacific Northwest,N,N,N,N
Staunton,VA,24401,Mid-Atlantic,N,N,N,N
Baltimore,MD,21227,MARC,,,,
St. George,UT,84770-5249,Southwest,N,N,N,N
St. Ignace,MI,49781-9617,Central,N,N,N,N
St. Louis,MO,63103-2607,Central,Y,Y,N,Y
Stamford,CT,06902,Northeast,Y,N,N,N
Stanley,ND,58784,Pacific Northwest,N,N,N,N
Clearwater,FL,33760-4846,Southern,Y,Y,N,N
New Haven,CT,06510,Shore Line East,,,,
Stanwood,WA,98292,Pacific Northwest,N,N,N,N
Suisun City,CA,94585-2466,Pacific,N,N,N,N
Sunriver,OR,97707,Pacific Northwest,N,N,N,N
Sun City-Menifee,CA,92586,Southwest,N,N,N,N
South Surrey,BC,V4A 4Z2,Pacific,N,N,N,N
Seattle,WA,98121,Pacific,N,N,N,N
Annapolis Junction,MD,20701,MARC,,,,
Stevens Point,WI,54481-1843,Central,N,N,N,N
Sturtevant,WI,53177-1764,Central,N,N,N,N
Stevens Point,WI,54481,Central,N,N,N,N
Scotts Valley,CA,95066-4029,Pacific,N,N,N,N
Syracuse,NY,13208,Northeast,Y,Y,N,N
Tacoma,WA,98421-2122,Pacific Northwest,Y,Y,N,N
Taylor,TX,76574-3627,Southwest,N,N,N,N
Toccoa,GA,30577,Southern,N,N,N,N
Tuscaloosa,AL,35401,Southern,Y,Y,N,N
Toledo,OR,97391-1000,Pacific Northwest,N,N,N,N
Tehachapi,CA,93561,Southwest,N,N,N,N
Twin Falls,ID,83301,Pacific Northwest,N,N,N,N
The Dalles,OR,97058,Pacific Northwest,N,N,N,N
Thurmond,WV,25936,Mid-Atlantic,N,N,N,N
Tilton,NH,03276,Northeast,N,N,N,N
Torrance,CA,90502,Southwest,N,N,N,N
Tomah,WI,54660,Central,N,N,N,N
Toledo,OH,43604-8817,Central,Y,Y,N,N
Topeka,KS,66607-1100,Central,Y,N,N,N
Tampa,FL,33602-3555,Southern,Y,Y,N,N
Temple,TX,76501,Southwest,Y,N,N,N
Tracy,CA,95376-1746,Pacific,N,N,N,N
Tracy,CA,95377,Pacific,N,N,N,N
Trenton,NJ,08609-1238,Northeast,Y,N,N,N
Trinidad,CO,81082,Southwest,N,N,N,N
Denair,CA,95316,Pacific,N,N,N,N
Truckee,CA,96161-0329,Pacific,N,N,N,N
Traverse City,MI,49684-2215,Central,N,N,N,N
Tusayan,AZ,86023,Southwest,N,N,N,N
Tukwila,WA,98188,Pacific Northwest,N,N,N,N
Tucson,AZ,85701-1899,Southwest,Y,Y,N,N
The Villages,FL,32159-9318,Southern,N,N,N,N
Tawas City,MI,48763,Central,N,N,N,N
Toronto,ON,M5J 1E7,VIA Rail Canada Inc.,Y,N,N,Y
Texarkana,AR,71854-5907,Southwest,Y,Y,N,N
Tyrone,PA,16686,Mid-Atlantic,N,N,N,N
Utica,NY,13501,Northeast,Y,Y,N,N
Ukiah,CA,95482,Pacific,N,N,N,N
Philadelphia,PA,19104,Mid-Atlantic,,,,
,,,,,,,
,,,,,,,
Winston-Salem,NC,27110-0001,Southern,N,N,N,N
Virginia Beach,VA,23451,Mid-Atlantic,N,N,N,N
Vancouver,BC,V6A 4C7,VIA Rail Canada Inc.,Y,Y,N,N
Vale,OR,97918-1163,Pacific Northwest,N,N,N,N
Vail,CO,81657,Central,N,N,N,N
Vallejo,CA,94589,Pacific,N,N,N,N
Vancouver,WA,98660,Pacific Northwest,Y,Y,N,N
Livermore,CA,94550,Pacific,N,N,N,N
Victoria,BC,V8W 3M6,Pacific,N,N,N,N
Ventura,CA,93003,Southwest,N,N,N,N
,,,,,,,
Victoria,BC,V8V 1W9,Pacific,N,N,N,N
Visalia,CA,93291-5053,Pacific,N,N,N,N
Vallejo,CA,94589,Pacific,N,N,N,N
Van Nuys,CA,91405,Southwest,Y,Y,N,N
Victorville,CA,92395-3219,Southwest,N,N,N,N
Victorville,CA,92395,Southwest,N,N,N,N
Waterbury,VT,05676,Northeast,N,N,N,N
Wasco,CA,93280-2026,Pacific,N,N,N,N
Washington,MO,63090-2118,Central,N,N,N,N
Warrensburg,MO,64093-2331,Central,N,N,N,N
Washington,DC,20002-4214,Mid-Atlantic,Y,Y,N,Y
Waupaca,WI,54981-8236,Central,N,N,N,N
Williamsburg,VA,23185-3650,Mid-Atlantic,Y,N,N,N
Baltimore,MD,21202,MARC,,,,
Westchester,CA,90045,Southwest,N,N,N,N
White City,OR,97503,Pacific,N,N,N,N
Woodbridge,VA,22194,Mid-Atlantic,N,N,N,N
Wisconsin Dells,WI,53965,Central,N,N,N,N
Waldo,FL,32694-0802,Southern,N,N,N,N
Waldoboro,ME,04572,Northeast,N,N,N,N
Wells,ME,04090,Northeast,N,N,N,N
Wenatchee,WA,98801-6008,Pacific Northwest,N,N,N,N
Los Angeles,CA,90024,Southwest,N,N,N,N
Wallingford,CT,06492,Northeast,N,N,N,N
Whitefish,MT,59937-2567,Pacific Northwest,Y,Y,N,N
West Glacier,MT,59936,Pacific Northwest,N,N,N,N
Gaithersburg,MD,20877,MARC,,,,
Whitehall,NY,12887,Northeast,N,N,N,N
Wishram,WA,98673,Pacific Northwest,N,N,N,N
Wilmington,DE,19801-5036,Mid-Atlantic,Y,Y,N,N
Winona,MN,55987,Central,Y,Y,N,N
Fraser,CO,80442,Central,N,N,N,N
Wittenberg,WI,54499,Central,N,N,N,N
Wilson,NC,27893,Southern,Y,Y,N,N
Winslow,AZ,86047,Southwest,N,N,N,N
Westerly,RI,02891,Northeast,Y,N,N,N
Williams,AZ,86046-2563,Southwest,N,N,N,N
Williams Junction,AZ,86046,Southwest,N,N,N,N
Windsor,CT,06095-2908,Northeast,N,N,N,N
Walloon Lake,MI,49796,Central,N,N,N,N
Windsor Locks,CT,06096,Northeast,N,N,N,N
Windsor,VT,05089-1407,Northeast,N,N,N,N
Winnemucca,NV,89445,Pacific,N,N,N,N
Walnut Ridge,AR,72476,Central,N,N,N,N
Winston-Salem,NC,27101,Southern,N,N,N,N
Warrenton,OR,97146-9319,Pacific Northwest,N,N,N,N
Woburn,MA,01801-1081,Northeast,N,N,N,N
Worcester,MA,01604,Northeast,Y,Y,N,N
West Palm Beach,FL,33401,Southern,Y,Y,N,N
Winter Park,FL,32789-3825,Southern,Y,Y,N,N
Waupun,WI,53963,Central,N,N,N,N
Wolf Point,MT,59201-1413,Pacific Northwest,Y,N,N,N
White River Junction,VT,05001-7042,Northeast,N,N,N,N
Rio Vista Junction,CA,94585,Pacific,N,N,N,N
Westbrook,CT,06498,Shore Line East,,,,
Westfield,WI,53964,Central,N,N,N,N
Wausau,WI,54403,Central,N,N,N,N
Whistler Village,BC,V0N 1B4,Pacific,N,N,N,N
Westport,NY,12993,Northeast,N,N,N,N
White Sulphur Springs,WV,24986,Mid-Atlantic,N,N,N,N
Wiscasset,ME,04578-4624,Northeast,N,N,N,N
Rothschild,WI,54474,Central,N,N,N,N
Winter Haven,FL,33880-4375,Southern,Y,Y,N,N
Waterloo,IN,46793,Central,N,N,N,N
Williston,ND,58801-6057,Pacific Northwest,Y,Y,N,N
Willits,CA,95490,Pacific,N,N,N,N
Walla Walla,WA,99362,Pacific Northwest,N,N,N,N
Wildwood,FL,34785-3842,Southern,N,N,N,N
Yazoo City,MS,39194,Central,N,N,N,N
Yemassee,SC,29945,Southern,N,N,N,N
Yonkers,NY,10701-3544,Northeast,N,N,N,N
Yosemite National Park,CA,95389,Pacific,N,N,N,N
Yosemite National Park,CA,95389,Pacific,N,N,N,N
Yosemite National Park,CA,95389,Pacific,N,N,N,N
Yosemite National Park,CA,95389,Pacific,N,N,N,N
Yosemite National Park,CA,95389,Pacific,N,N,N,N
Yosemite National Park,CA,95389,Pacific,N,N,N,N
Yosemite National Park,CA,95389,Pacific,N,N,N,N
Yuma,AZ,85364,Southwest,N,N,N,N
Vallejo,CA,94589,,,,,